FENGYUN 1C DEB          
1 32186U 99025CUG 17345.75699340 -.00000044  00000-0  19660-5 0  9994
2 32186  99.6404 315.5035 0284057 202.3173 281.7369 13.71755149520927
